[{"OBJECT_NAME":"STARLINK-34789","OBJECT_ID":"2025-161H","EPOCH":"2026-03-09T22:20:43.243584","MEAN_MOTION":15.30212421,"ECCENTRICITY":0.00010435,"INCLINATION":53.1587,"RA_OF_ASC_NODE":293.3074,"ARG_OF_PERICENTER":92.268,"MEAN_ANOMALY":267.844,"EPHEMERIS_TYPE":0,"CLASSIFICATION_TYPE":"U","NORAD_CAT_ID":65022,"ELEMENT_SET_NO":999,"REV_AT_EPOCH":3535,"BSTAR":0.00085396309,"MEAN_MOTION_DOT":0.00025028,"MEAN_MOTION_DDOT":0},{"OBJECT_NAME":"COSMOS 2535 DEB","OBJECT_ID":"2019-039M","EPOCH":"2026-03-08T03:25:35.903424","MEAN_MOTION":15.28322551,"ECCENTRICITY":0.0014917,"INCLINATION":97.5619,"RA_OF_ASC_NODE":139.2722,"ARG_OF_PERICENTER":329.0964,"MEAN_ANOMALY":30.9396,"EPHEMERIS_TYPE":0,"CLASSIFICATION_TYPE":"U","NORAD_CAT_ID":44641,"ELEMENT_SET_NO":999,"REV_AT_EPOCH":35167,"BSTAR":0.0011539757,"MEAN_MOTION_DOT":0.0003196,"MEAN_MOTION_DDOT":0}]
